C/2021 P4 (ATLAS),e,56.3108,348.0946,175.8225,316.2660,0.0001752,0.99658371,0.0000,07/30.3751/2022,2000,g  9.5,4.0
# From MPEC 2022-GA9
C/2021 Q3 (ATLAS),e,77.7762,307.9030,114.0946,74.92917,0.0015196,0.93053993,0.1305,04/22.0/2022,2000,g  8.0,4.0
# From MPEC 2022-GA9
C/2021 Q4 (Fuls),h,06/09.4320/2023,71.4731,183.3334,146.9305,1.003394,7.565776,2000,6.0,4.0
# From MPEC 2022-C56
P/2021 Q5 (ATLAS),e,10.7343,239.7693,180.9001,3.285998,0.1654638,0.62431452,38.8113,04/22.0/2022,2000,g 15.0,4.0
# From MPEC 2022-C56
C/2021 Q6 (PANSTARRS),e,161.8472,133.5371,140.8415,8055,0.0000014,0.99891834,0.0000,03/22.0296/2024,2000,g  6.0,4.0
# From MPEC 2021-W31
P/2021 R1 (PANSTARRS),e,5.5207,143.4013,220.3416,8.395799,0.0405145,0.41805853,5.0752,04/22.0/2022,2000,g 11.0,4.0
# From MPEC 2021-W31
C/2021 R2 (PANSTARRS),e,134.4690,16.2843,32.3733,1850,0.0000124,0.99604817,0.0000,12/26.0712/2021,2000,g  7.5,4.0
# From MPEC 2021-W31
P/2021 R3 (PANSTARRS),e,19.9266,304.2244,2.8866,3.775924,0.1343288,0.33146450,44.3822,04/22.0/2022,2000,g 16.0,4.0
# From MPEC 2021-W31
P/2021 R4 (Wierzchos),e,21.0400,321.2557,56.6350,5.617489,0.0740271,0.58592305,14.0693,04/22.0/2022,2000,g 16.0,4.0
# From MPEC 2022-CN4
P/2021 R5 (Rankin),e,7.8545,219.9593,167.3740,4.794216,0.0938918,0.30693641,9.3737,04/22.0/2022,2000,g 12.0,4.0
# From MPEC 2021-W31
P/2021 R6 (Groeller),e,34.9270,176.1148,220.7339,6.273034,0.0627318,0.59314759,10.7959,04/22.0/2022,2000,g 14.5,4.0
# From MPEC 2022-C56
C/2021 R7 (PANSTARRS),e,158.8557,170.1450,140.1549,1442,0.0000180,0.99608645,0.0000,04/16.0194/2021,2000,g 10.5,4.0
# From MPEC 2021-Y10
P/2021 R8 (Sheppard),e,2.2034,167.0295,190.7609,3.016902,0.1880885,0.29364395,36.9735,04/22.0/2022,2000,g 18.5,4.0
# From MPEC 2022-GA9
C/2021 S1 (ATLAS),h,02/28.8904/2022,52.0880,299.8743,148.1831,1.001009,6.119211,2000,7.0,4.0
# From MPEC 2022-H04
C/2021 S3 (PANSTARRS),e,58.5409,215.6390,6.9061,5328,0.0000025,0.99975248,0.0000,02/14.8148/2024,2000,g  5.5,4.0
# From MPEC 2022-ED3
C/2021 S4 (Tsuchinshan),e,17.4778,5.4949,72.7348,162.7165,0.0004749,0.95886922,359.7062,04/22.0/2022,2000,g  6.5,4.0
# From MPEC 2022-GA9
C/2021 T1 (Lemmon),e,140.3516,56.8319,51.5154,1360,0.0000197,0.99775112,0.0000,10/14.0691/2021,2000,g 12.5,4.0
# From MPEC 2022-ED3
C/2021 T2 (Fuls),h,06/07.8903/2022,117.5299,223.2318,263.5907,1.000229,1.247701,2000,12.0,4.0
# From MPEC 2022-ED3
C/2021 T4 (Lemmon),e,160.7545,257.7944,329.7856,8647,0.0000012,0.99982863,0.0000,07/31.5429/2023,2000,g  7.5,4.0
# From MPEC 2022-ED3
P/2021 U1 (Wierzchos),e,30.5598,246.7891,145.0533,8.512427,0.0396848,0.71276299,8.0560,04/22.0/2022,2000,g 14.5,4.0
# From MPEC 2022-C56
P/2021 U3 (Attard-Maury),e,69.9613,75.1124,335.2144,4.192011,0.1148340,0.54989486,20.5706,04/22.0/2022,2000,g 15.5,4.0
# From MPEC 2021-W31
C/2021 U4 (Leonard),e,152.8775,241.8119,237.2783,44.79927,0.0032870,0.96010289,0.3980,04/22.0/2022,2000,g 17.0,4.0
# From MPEC 2022-H04
C/2021 U5 (Catalina),e,39.0499,182.7549,321.4689,217.0952,0.0003081,0.98911414,0.0000,01/26.6060/2022,2000,g 13.0,4.0
# From MPEC 2022-CN4
C/2021 V1 (Rankin),e,71.4504,207.6519,195.1114,665.1497,0.0000575,0.99546954,0.0000,04/30.3876/2022,2000,g 13.0,4.0
# From MPEC 2022-H04
P/2021 V2 (Fuls),e,12.6951,232.2913,259.8338,9.042351,0.0362478,0.61331461,350.0499,04/22.0/2022,2000,g 10.0,4.0
# From MPEC 2022-H04
A/2021 X1,h,05/27.3931/2023,140.1213,10.5816,334.6015,1.000124,3.234306,2000,11.5,2.0
# From MPEC 2022-ED3
A/2021 X2,h,07/08.1502/2022,137.1428,228.7982,193.2823,1.001218,2.994527,2000,16.0,2.0
# From MPEC 2022-GA9
C/2021 Y1 (ATLAS),h,04/30.7211/2023,77.1867,244.7698,245.8087,1.000651,2.032703,2000,7.0,4.0
# From MPEC 2022-ED3
C/2022 A1 (Sarneczky),e,116.5216,285.5217,201.1956,835.1275,0.0000408,0.99849980,0.0000,01/31.1543/2022,2000,g 18.0,4.0
# From MPEC 2022-H04
C/2022 A2 (PANSTARRS),h,02/18.2321/2023,108.1488,171.5800,88.3599,1.000654,1.735260,2000,9.5,4.0
# From MPEC 2022-H04
C/2022 A3 (Lemmon-ATLAS),e,88.3588,325.4828,234.8584,998.7317,0.0000312,0.99629251,0.0000,09/28.8304/2023,2000,g  8.0,4.0
# From MPEC 2022-CN4
P/2022 B1 (Wierzchos),e,10.9908,148.8501,325.4802,5.464189,0.0771641,0.65288444,4.2952,04/22.0/2022,2000,g 16.5,4.0
# From MPEC 2022-GA9
A/2022 B3,e,132.0568,286.1866,150.7033,881.8587,0.0000376,0.99580624,0.0000,01/17.6724/2022,2000,g 16.5,2.0
# From MPEC 2022-GA9
C/2022 B4 (Bok),e,20.0442,340.6616,152.9546,390.2843,0.0001278,0.99646499,0.0000,01/29.8948/2022,2000,g 21.0,4.0
# From MPEC 2022-H04
P/2022 C1 (PANSTARRS),e,4.7621,113.1473,9.3689,7.215989,0.0508464,0.44768018,8.5659,04/22.0/2022,2000,g 12.0,4.0
# From MPEC 2022-H04
P/2022 C2 (PANSTARRS),e,9.9800,135.2759,89.3285,6.049354,0.0662431,0.44286575,352.9287,04/22.0/2022,2000,g 12.5,4.0
# From MPEC 2022-H04
P/2022 C3 (PANSTARRS),e,12.8158,139.0603,93.9802,9.655602,0.0328500,0.54697042,357.6824,04/22.0/2022,2000,g 11.5,4.0
# From MPEC 2022-H04
P/2022 D1 (PANSTARRS),e,44.0677,47.9598,88.7457,7.398433,0.0489773,0.54677536,11.5984,04/22.0/2022,2000,g 12.5,4.0
# From MPEC 2022-GA9
C/2022 D2 (Kowalski),e,22.6546,312.4700,177.7914,364.7151,0.0001415,0.99573599,0.0000,03/27.5761/2022,2000,g 17.0,4.0
# From MPEC 2022-H04
P/2022 E1 (Christensen),e,19.8858,108.9389,145.1764,4.129005,0.1174724,0.28422073,339.8670,04/22.0/2022,2000,g 13.5,4.0
# From MPEC 2022-H04
C/2022 E2 (ATLAS),h,09/13.3274/2024,137.1447,125.3534,41.6691,1.002245,3.664932,2000,5.0,4.0
# From MPC xxxxx
C/2022 E3 (ZTF),h,01/12.8166/2023,109.1645,302.5518,145.8120,1.000203,1.112430,2000,7.5,4.0
# From MPEC 2022-H04
C/2022 F1 (ATLAS),h,07/26.8513/2022,58.0102,351.1242,277.1405,1.018013,6.009623,2000,7.0,4.0
# From MPEC 2022-H04
C/2022 F2 (NEOWISE),e,97.2969,58.7001,200.6442,24.23657,0.0082603,0.93459642,0.2438,04/22.0/2022,2000,g 14.5,4.0
# From  98, 1083
1P/Halley,e,162.2143,59.0568,111.9832,17.87206,0.0130449,0.96636809,172.3625,04/22.0/2022,2000,g  4.0,6.0
# From MPEC 2021-TD0
2P/Encke,e,11.5906,334.3985,186.9045,2.219290,0.2981145,0.84913915,197.0164,04/22.0/2022,2000,g 11.5,6.0
# From MPEC 2022-H04
4P/Faye,e,8.0084,192.9284,207.0126,3.824534,0.1317760,0.57669337,29.6686,04/22.0/2022,2000,g  8.0,6.0
# From MPEC 2022-ED3
6P/d'Arrest,e,19.5122,138.9338,178.0828,3.497075,0.1507116,0.61267943,32.5914,04/22.0/2022,2000,g  7.5,16.0
# From MPEC 2021-Y10
7P/Pons-Winnecke,e,22.3643,93.3503,172.5757,3.412286,0.1563637,0.63849593,51.5866,04/22.0/2022,2000,g 10.0,6.0
# From MPEC 2022-F14
8P/Tuttle,e,54.9124,270.2004,207.4858,5.705978,0.0723118,0.82019443,17.1574,04/22.0/2022,2000,g  8.0,8.0
# From MPEC 2022-H04
9P/Tempel,e,10.4700,68.7139,179.3539,3.146003,0.1766303,0.50914279,8.4860,04/22.0/2022,2000,g  5.5,10.0
# From MPEC 2022-F14
10P/Tempel,e,12.0390,117.8105,195.5032,3.060830,0.1840540,0.53842900,72.4744,04/22.0/2022,2000,g  5.0,10.0
# From MPEC 2021-UA9
11P/Tempel-Swift-LINEAR,e,14.4228,238.8911,167.9675,3.283802,0.1656299,0.57724203,84.7462,04/22.0/2022,2000,g 17.0,4.0
# From  27, 604
12P/Pons-Brooks,e,74.1599,255.8051,198.9852,17.16190,0.0138630,0.95445324,349.8855,04/22.0/2022,2000,g  5.0,6.0
# From  27, 604
13P/Olbers,e,44.6178,85.9379,64.4012,16.76291,0.0143608,0.92989528,348.4950,04/22.0/2022,2000,g  5.0,6.0
# From MPEC 2021-F20
14P/Wolf,e,27.9215,202.0439,159.0565,4.258343,0.1121613,0.35714716,179.5032,04/22.0/2022,2000,g  5.5,12.0
# From MPEC 2022-ED3
15P/Finlay,e,6.7979,13.7106,347.8416,3.506656,0.1500944,0.71705918,42.4042,04/22.0/2022,2000,g 12.0,4.0
# From MPEC 2022-C56
16P/Brooks,e,3.0117,138.8698,245.2077,3.657322,0.1409157,0.48638304,51.9522,04/22.0/2022,2000,g  7.5,10.0
# From MPEC 2022-ED3
17P/Holmes,e,19.0318,326.6222,24.5081,3.636297,0.1421396,0.42762491,60.5656,04/22.0/2022,2000,g 10.0,6.0
# From MPEC 2022-H04
19P/Borrelly,e,29.3044,74.2468,351.9180,3.604988,0.1439953,0.63764734,11.4007,04/22.0/2022,2000,g  4.5,10.0
# From MPEC 2021-F20
21P/Giacobini-Zinner,e,32.0515,195.3451,172.8724,3.495409,0.1508193,0.71116473,198.8952,04/22.0/2022,2000,g 11.4,4.0
# From MPEC 2022-H04
22P/Kopff,e,4.7422,120.8313,163.0259,3.440648,0.1544343,0.54880310,5.3843,04/22.0/2022,2000,g  3.0,10.4
# From MPC 14747
23P/Brorsen-Metcalf,e,19.1669,312.2881,128.9186,16.94652,0.0141281,0.97170714,0.0000,08/05.2448/1989,2000,g 10.0,6.0
# From MPC110085
24P/Schaumasse,e,11.5129,78.4333,58.3800,4.054218,0.1207378,0.70782357,195.9828,04/22.0/2022,2000,g  6.5,14.0
# From MPEC 2021-WD8
26P/Grigg-Skjellerup,e,22.4323,211.5391,2.1619,3.014725,0.1882923,0.64031785,244.6658,04/22.0/2022,2000,g 12.0,16.0
# From MPC 78188
27P/Crommelin,e,29.2764,250.6330,195.9013,9.182852,0.0354191,0.91858702,139.0435,04/22.0/2022,2000,g 12.0,8.0
# From MPEC 2022-F14
28P/Neujmin,e,14.3121,346.3319,347.4293,6.977243,0.0534784,0.77371897,21.7189,04/22.0/2022,2000,g  8.5,6.0
# From MPEC 2022-H04
29P/Schwassmann-Wachmann,e,9.3660,312.3843,50.0581,6.043124,0.0663455,0.04481554,73.6304,04/22.0/2022,2000,g  4.0,4.0
# From MPC110085
30P/Reinmuth,e,8.1168,117.8993,9.5465,3.716169,0.1375818,0.51915890,243.4722,04/22.0/2022,2000,g  9.5,6.0
# From MPEC 2021-F20
31P/Schwassmann-Wachmann,e,4.5476,114.1073,18.0188,4.237114,0.1130053,0.19213544,115.6054,04/22.0/2022,2000,g 13.1,4.0
# From MPC 92276
32P/Comas Sola,e,9.8770,55.1351,54.8632,4.529714,0.1022346,0.55844169,285.4070,04/22.0/2022,2000,g  6.5,8.0
# From MPEC 2013-O31
33P/Daniel,e,22.2960,66.3087,20.4975,4.086766,0.1192984,0.45163717,248.4532,04/22.0/2022,2000,g 10.0,12.0
# From  15, 452
35P/Herschel-Rigollet,e,65.266,356.728,28.957,28.5540,0.006460,0.9741309,0.000,01/18.7305/2092,2000,g  9.0,4.0
# From MPEC 2022-ED3
36P/Whipple,e,9.9523,181.8434,200.9420,4.135332,0.1172029,0.26906812,80.8195,04/22.0/2022,2000,g  8.5,6.0
# From MPEC 2021-F20
37P/Forbes,e,8.9554,314.5647,330.1196,3.460975,0.1530757,0.53345812,221.7881,04/22.0/2022,2000,g 13.8,4.0
# From MPEC 2018-S50
38P/Stephan-Oterma,e,18.3741,77.9371,359.4986,11.23587,0.0261694,0.85916922,32.9134,04/22.0/2022,2000,g  3.5,12.0
# From MPEC 2022-A21
39P/Oterma,e,1.5511,298.7563,97.6719,7.347809,0.0494843,0.22172758,339.6051,04/22.0/2022,2000,g  7.0,6.0
# From MPC100283
